{
  "type": "FeatureCollection",
  "features": [
    {
      "type": "Feature",
      "properties": {
        "norad_id": 41859,
        "name": "GSAT0207 (GALILEO 15)",
        "group": "gnss",
        "lat": -29.137521810092704,
        "lon": -50.96848909093479,
        "alt_km": 23227.993815823793,
        "timestamp": "2025-12-06T16:45:42.965881+00:00",
        "meta_object_name": "GSAT0207 (GALILEO 15)",
        "meta_object_id": "2016-069A",
        "meta_epoch": "2025-12-03T23:59:33.819072",
        "meta_mean_motion": 1.70474248,
        "meta_eccentricity": 0.0002136,
        "meta_inclination": 55.3774,
        "meta_ra_of_asc_node": 106.4923,
        "meta_arg_of_pericenter": 325.6107,
        "meta_mean_anomaly": 34.3288,
        "meta_ephemeris_type": 0,
        "meta_classification_type": "U",
        "meta_norad_cat_id": 41859,
        "meta_element_set_no": 999,
        "meta_rev_at_epoch": 5607,
        "meta_bstar": 0,
        "meta_mean_motion_dot": 1.5e-07,
        "meta_mean_motion_ddot": 0,
        "tle_line1": "1 41859U 16069A   25337.99969698  .00000015  00000+0  00000+0 0  9998",
        "tle_line2": "2 41859  55.3774 106.4923 0002136 325.6107  34.3288  1.70474248 56074"
      },
      "geometry": {
        "type": "Point",
        "coordinates": [
          -50.96848909093479,
          -29.137521810092704
        ]
      }
    },
    {
      "type": "Feature",
      "properties": {
        "norad_id": 41860,
        "name": "GSAT0212 (GALILEO 16)",
        "group": "gnss",
        "lat": -41.69756812289873,
        "lon": 68.44861855748715,
        "alt_km": 23226.60751635612,
        "timestamp": "2025-12-06T16:45:42.965892+00:00",
        "meta_object_name": "GSAT0212 (GALILEO 16)",
        "meta_object_id": "2016-069B",
        "meta_epoch": "2025-12-06T04:47:33.838080",
        "meta_mean_motion": 1.70474471,
        "meta_eccentricity": 0.00022225,
        "meta_inclination": 55.376,
        "meta_ra_of_asc_node": 106.4267,
        "meta_arg_of_pericenter": 32.4045,
        "meta_mean_anomaly": 327.5613,
        "meta_ephemeris_type": 0,
        "meta_classification_type": "U",
        "meta_norad_cat_id": 41860,
        "meta_element_set_no": 999,
        "meta_rev_at_epoch": 5636,
        "meta_bstar": 0,
        "meta_mean_motion_dot": 6e-08,
        "meta_mean_motion_ddot": 0,
        "tle_line1": "1 41860U 16069B   25340.19969720  .00000006  00000+0  00000+0 0  9992",
        "tle_line2": "2 41860  55.3760 106.4267 0002222  32.4045 327.5613  1.70474471 56361"
      },
      "geometry": {
        "type": "Point",
        "coordinates": [
          68.44861855748715,
          -41.69756812289873
        ]
      }
    },
    {
      "type": "Feature",
      "properties": {
        "norad_id": 41861,
        "name": "GSAT0213 (GALILEO 17)",
        "group": "gnss",
        "lat": 54.26108636708578,
        "lon": 179.97680102833564,
        "alt_km": 23221.61697302979,
        "timestamp": "2025-12-06T16:45:42.965906+00:00",
        "meta_object_name": "GSAT0213 (GALILEO 17)",
        "meta_object_id": "2016-069C",
        "meta_epoch": "2025-12-04T19:22:49.962144",
        "meta_mean_motion": 1.70474712,
        "meta_eccentricity": 0.00021375,
        "meta_inclination": 55.3775,
        "meta_ra_of_asc_node": 106.4729,
        "meta_arg_of_pericenter": 283.7545,
        "meta_mean_anomaly": 76.173,
        "meta_ephemeris_type": 0,
        "meta_classification_type": "U",
        "meta_norad_cat_id": 41861,
        "meta_element_set_no": 999,
        "meta_rev_at_epoch": 5620,
        "meta_bstar": 0,
        "meta_mean_motion_dot": 1e-07,
        "meta_mean_motion_ddot": 0,
        "tle_line1": "1 41861U 16069C   25338.80752271  .00000010  00000+0  00000+0 0  9994",
        "tle_line2": "2 41861  55.3775 106.4729 0002137 283.7545  76.1730  1.70474712 56200"
      },
      "geometry": {
        "type": "Point",
        "coordinates": [
          179.97680102833564,
          54.26108636708578
        ]
      }
    },
    {
      "type": "Feature",
      "properties": {
        "norad_id": 41862,
        "name": "GSAT0214 (GALILEO 18)",
        "group": "gnss",
        "lat": -7.491834804851839,
        "lon": 101.19038041592341,
        "alt_km": 23221.59583059643,
        "timestamp": "2025-12-06T16:45:42.965917+00:00",
        "meta_object_name": "GSAT0214 (GALILEO 18)",
        "meta_object_id": "2016-069D",
        "meta_epoch": "2025-12-05T12:57:44.455104",
        "meta_mean_motion": 1.70474584,
        "meta_eccentricity": 0.00011763,
        "meta_inclination": 55.3762,
        "meta_ra_of_asc_node": 106.4455,
        "meta_arg_of_pericenter": 291.0864,
        "meta_mean_anomaly": 68.8522,
        "meta_ephemeris_type": 0,
        "meta_classification_type": "U",
        "meta_norad_cat_id": 41862,
        "meta_element_set_no": 999,
        "meta_rev_at_epoch": 5634,
        "meta_bstar": 0,
        "meta_mean_motion_dot": 8e-08,
        "meta_mean_motion_ddot": 0,
        "tle_line1": "1 41862U 16069D   25339.54009786  .00000008  00000+0  00000+0 0  9990",
        "tle_line2": "2 41862  55.3762 106.4455 0001176 291.0864  68.8522  1.70474584 56340"
      },
      "geometry": {
        "type": "Point",
        "coordinates": [
          101.19038041592341,
          -7.491834804851839
        ]
      }
    },
    {
      "type": "Feature",
      "properties": {
        "norad_id": 42709,
        "name": "SES-15 (WAAS/PRN 133)",
        "group": "gnss",
        "lat": -0.02616451784916774,
        "lon": -162.03140566817436,
        "alt_km": 35786.85759033349,
        "timestamp": "2025-12-06T16:45:42.965931+00:00",
        "meta_object_name": "SES-15 (WAAS/PRN 133)",
        "meta_object_id": "2017-026A",
        "meta_epoch": "2025-12-06T05:56:29.518368",
        "meta_mean_motion": 1.00267438,
        "meta_eccentricity": 5.188e-05,
        "meta_inclination": 0.0199,
        "meta_ra_of_asc_node": 346.6455,
        "meta_arg_of_pericenter": 290.6826,
        "meta_mean_anomaly": 117.914,
        "meta_ephemeris_type": 0,
        "meta_classification_type": "U",
        "meta_norad_cat_id": 42709,
        "meta_element_set_no": 999,
        "meta_rev_at_epoch": 549,
        "meta_bstar": 0,
        "meta_mean_motion_dot": 6.8e-07,
        "meta_mean_motion_ddot": 0,
        "tle_line1": "1 42709U 17026A   25340.24756387  .00000068  00000+0  00000+0 0  9996",
        "tle_line2": "2 42709   0.0199 346.6455 0000518 290.6826 117.9140  1.00267438  5495"
      },
      "geometry": {
        "type": "Point",
        "coordinates": [
          -162.03140566817436,
          -0.02616451784916774
        ]
      }
    },
    {
      "type": "Feature",
      "properties": {
        "norad_id": 42738,
        "name": "QZS-2 (QZSS/PRN 194)",
        "group": "gnss",
        "lat": -22.06439209515624,
        "lon": 95.14614983074559,
        "alt_km": 33740.167571144724,
        "timestamp": "2025-12-06T16:45:42.965943+00:00",
        "meta_object_name": "QZS-2 (QZSS/PRN 194)",
        "meta_object_id": "2017-028A",
        "meta_epoch": "2025-12-05T14:20:02.331744",
        "meta_mean_motion": 1.00284944,
        "meta_eccentricity": 0.07587515,
        "meta_inclination": 39.7259,
        "meta_ra_of_asc_node": 245.988,
        "meta_arg_of_pericenter": 269.4031,
        "meta_mean_anomaly": 275.8025,
        "meta_ephemeris_type": 0,
        "meta_classification_type": "U",
        "meta_norad_cat_id": 42738,
        "meta_element_set_no": 999,
        "meta_rev_at_epoch": 568,
        "meta_bstar": 0,
        "meta_mean_motion_dot": -1.57e-06,
        "meta_mean_motion_ddot": 0,
        "tle_line1": "1 42738U 17028A   25339.59724921 -.00000157  00000+0  00000+0 0  9995",
        "tle_line2": "2 42738  39.7259 245.9880 0758751 269.4031 275.8025  1.00284944  5685"
      },
      "geometry": {
        "type": "Point",
        "coordinates": [
          95.14614983074559,
          -22.06439209515624
        ]
      }
    },
    {
      "type": "Feature",
      "properties": {
        "norad_id": 42917,
        "name": "QZS-3 (QZSS/PRN 199)",
        "group": "gnss",
        "lat": -0.02832567322936931,
        "lon": 94.16667050956256,
        "alt_km": 35794.427810006724,
        "timestamp": "2025-12-06T16:45:42.965955+00:00",
        "meta_object_name": "QZS-3 (QZSS/PRN 199)",
        "meta_object_id": "2017-048A",
        "meta_epoch": "2025-12-06T00:34:24.255840",
        "meta_mean_motion": 1.00274744,
        "meta_eccentricity": 0.00022148,
        "meta_inclination": 0.0691,
        "meta_ra_of_asc_node": 215.444,
        "meta_arg_of_pericenter": 43.9175,
        "meta_mean_anomaly": 311.3231,
        "meta_ephemeris_type": 0,
        "meta_classification_type": "U",
        "meta_norad_cat_id": 42917,
        "meta_element_set_no": 999,
        "meta_rev_at_epoch": 3032,
        "meta_bstar": 0,
        "meta_mean_motion_dot": -3.39e-06,
        "meta_mean_motion_ddot": 0,
        "tle_line1": "1 42917U 17048A   25340.02389185 -.00000339  00000+0  00000+0 0  9997",
        "tle_line2": "2 42917   0.0691 215.4440 0002214  43.9175 311.3231  1.00274744 30320"
      },
      "geometry": {
        "type": "Point",
        "coordinates": [
          94.16667050956256,
          -0.02832567322936931
        ]
      }
    }
  ]
}